{"type": "FeatureCollection", "features": [ {"type": "Feature", "properties": {"norad_id": 64202, "name": "GPS BIII-8  (PRN 21)", "group": "gnss", "lat": 20.431838654727976, "lon": -156.59852032842056, "alt_km": 20193.56474530614, "timestamp": "2025-12-17T19:34:08.282753+00:00", "meta": {"OBJECT_NAME": "GPS BIII-8  (PRN 21)", "OBJECT_ID": "2025-116A", "EPOCH": "2025-12-14T02:46:13.653120", "MEAN_MOTION": 2.00558299, "ECCENTRICITY": 0.00056153, "INCLINATION": 55.1067, "RA_OF_ASC_NODE": 38.5851, "ARG_OF_PERICENTER": 308.147, "MEAN_ANOMALY": 55.2369, "EPHEMERIS_TYPE": 0, "CLASSIFICATION_TYPE": "U", "NORAD_CAT_ID": 64202, "ELEMENT_SET_NO": 999, "REV_AT_EPOCH": 416, "BSTAR": 0, "MEAN_MOTION_DOT": -9.6e-07, "MEAN_MOTION_DDOT": 0}, "tle": {"line1": "1 64202U 25116A   25348.11543580 -.00000096  00000+0  00000+0 0  9992", "line2": "2 64202  55.1067  38.5851 0005615 308.1470  55.2369  2.00558299  4161"}}, "geometry": {"type": "Point", "coordinates": [-156.59852032842056, 20.431838654727976]}}, {"type": "Feature", "properties": {"norad_id": 65590, "name": "COSMOS 2596 (708K)", "group": "gnss", "lat": -25.487261455542367, "lon": -51.71977742439499, "alt_km": 19101.049123383786, "timestamp": "2025-12-17T19:34:08.282763+00:00", "meta": {"OBJECT_NAME": "COSMOS 2596 (708K)", "OBJECT_ID": "2025-206B", "EPOCH": "2025-12-16T13:58:37.157664", "MEAN_MOTION": 2.13100551, "ECCENTRICITY": 0.00140491, "INCLINATION": 64.7424, "RA_OF_ASC_NODE": 321.3409, "ARG_OF_PERICENTER": 306.7915, "MEAN_ANOMALY": 158.8114, "EPHEMERIS_TYPE": 0, "CLASSIFICATION_TYPE": "U", "NORAD_CAT_ID": 65590, "ELEMENT_SET_NO": 999, "REV_AT_EPOCH": 202, "BSTAR": 0, "MEAN_MOTION_DOT": -6.9e-07, "MEAN_MOTION_DDOT": 0}, "tle": {"line1": "1 65590U 25206B   25350.58237451 -.00000069  00000+0  00000+0 0  9994", "line2": "2 65590  64.7424 321.3409 0014049 306.7915 158.8114  2.13100551  2025"}}, "geometry": {"type": "Point", "coordinates": [-51.71977742439499, -25.487261455542367]}}, {"type": "Feature", "properties": {"norad_id": 67160, "name": "GALILEO A", "group": "gnss", "lat": 20.810324778311088, "lon": -88.63882446808087, "alt_km": 22941.005967502366, "timestamp": "2025-12-17T19:34:08.282774+00:00", "meta": {"OBJECT_NAME": "GALILEO A", "OBJECT_ID": "2025-302A", "EPOCH": "2025-12-17T13:37:30.970848", "MEAN_MOTION": 1.72894122, "ECCENTRICITY": 0.0007404, "INCLINATION": 54.2333, "RA_OF_ASC_NODE": 107.264, "ARG_OF_PERICENTER": 239.3858, "MEAN_ANOMALY": 120.5001, "EPHEMERIS_TYPE": 0, "CLASSIFICATION_TYPE": "U", "NORAD_CAT_ID": 67160, "ELEMENT_SET_NO": 999, "REV_AT_EPOCH": 1, "BSTAR": 0, "MEAN_MOTION_DOT": -8e-08, "MEAN_MOTION_DDOT": 0}, "tle": {"line1": "1 67160U 25302A   25351.56771957 -.00000008  00000+0  00000+0 0  9992", "line2": "2 67160  54.2333 107.2640 0007404 239.3858 120.5001  1.72894122    11"}}, "geometry": {"type": "Point", "coordinates": [-88.63882446808087, 20.810324778311088]}}, {"type": "Feature", "properties": {"norad_id": 67161, "name": "GALILEO B", "group": "gnss", "lat": 20.688659940515276, "lon": -88.55258350571948, "alt_km": 22933.611473037057, "timestamp": "2025-12-17T19:34:08.282786+00:00", "meta": {"OBJECT_NAME": "GALILEO B", "OBJECT_ID": "2025-302B", "EPOCH": "2025-12-17T13:37:26.133312", "MEAN_MOTION": 1.7297556, "ECCENTRICITY": 0.0005026, "INCLINATION": 54.2323, "RA_OF_ASC_NODE": 107.2467, "ARG_OF_PERICENTER": 244.253, "MEAN_ANOMALY": 115.654, "EPHEMERIS_TYPE": 0, "CLASSIFICATION_TYPE": "U", "NORAD_CAT_ID": 67161, "ELEMENT_SET_NO": 999, "REV_AT_EPOCH": 2, "BSTAR": 0, "MEAN_MOTION_DOT": -8e-08, "MEAN_MOTION_DDOT": 0}, "tle": {"line1": "1 67161U 25302B   25351.56766358 -.00000008  00000+0  00000+0 0  9992", "line2": "2 67161  54.2323 107.2467 0005026 244.2530 115.6540  1.72975560    28"}}, "geometry": {"type": "Point", "coordinates": [-88.55258350571948, 20.688659940515276]}}]}